{"type": "FeatureCollection", "features": [{"type": "Feature", "id": 1, "geometry": {"type": "Point", "coordinates": [-111.98683494397065, 33.35344039786819]}, "properties": {"OBJECTID": 1, "NAME": "Western Star Park", "ADDRESS": "4425 E. Western Star Blvd.", "INTERSECTION": "44th Street and Western Star Boulevard", "HOURS": "5:30 a.m. to 10 p.m.", "DISTANCE": ".388 Miles", "WALKPHXGUIDE": "Y/ N", "AMENITIES": "Lighted basketball, playground, ramadas and picnic area, restrooms, lighted tennis, lighted sand volleyball.", "TRAILNUMBER": "1", "PARKSDIVISION": "South", "_layer": "WalkPHX Trailheads"}}, {"type": "Feature", "id": 2, "geometry": {"type": "Point", "coordinates": [-111.9968288797274, 33.31939690289364]}, "properties": {"OBJECTID": 2, "NAME": "Sun Ray Park", "ADDRESS": "4059 E. Ray Road", "INTERSECTION": "41st Street and Ray Road", "HOURS": "5:30 a.m. to 10:00 p.m.", "DISTANCE": ".47 miles", "WALKPHXGUIDE": "Y/N", "AMENITIES": "Lighted softball field, lighted basketball, picnic area, playground with shade structure, restrooms, soccer, lighted tennis, lighted volleyball, grill.", "TRAILNUMBER": "1", "PARKSDIVISION": "South", "_layer": "WalkPHX Trailheads"}}, {"type": "Feature", "id": 3, "geometry": {"type": "Point", "coordinates": [-112.01940559203254, 33.30006563582222]}, "properties": {"OBJECTID": 3, "NAME": "Vista Canyon Park", "ADDRESS": "16020 S. 30th St.", "INTERSECTION": "30th Street and Mountain Vista Drive", "HOURS": "5:30 a.m. to 11:00 p.m.", "DISTANCE": ".55", "WALKPHXGUIDE": "Y/N", "AMENITIES": "Lighted basketball, playground, restrooms, softball, lighted\r\nvolleyball, grill, soccer.", "TRAILNUMBER": "1", "PARKSDIVISION": "South", "_layer": "WalkPHX Trailheads"}}, {"type": "Feature", "id": 4, "geometry": {"type": "Point", "coordinates": [-112.21246395970691, 33.418018390374556]}, "properties": {"OBJECTID": 4, "NAME": "Santa Maria Park", "ADDRESS": "3425 S. 71st Ave.", "INTERSECTION": "71st Avenue and Elwood", "HOURS": "5:30 a.m. to 11 p.m.", "DISTANCE": ".7 miles", "WALKPHXGUIDE": "Y/N", "AMENITIES": "Lighted baseball, lighted horse arena, picnic area, playground, restrooms, lighted softball, soccer field.", "TRAILNUMBER": "1", "PARKSDIVISION": "South", "_layer": "WalkPHX Trailheads"}}, {"type": "Feature", "id": 5, "geometry": {"type": "Point", "coordinates": [-112.12710091520849, 33.38441011018211]}, "properties": {"OBJECTID": 5, "NAME": "Laveen Village Park", "ADDRESS": "3146 W. Vineyard", "INTERSECTION": "32nd Avenue and Vineyard", "HOURS": "5:30 a.m. to 10:00 p.,.", "DISTANCE": "Approx. .3 miles - .296 miles", "WALKPHXGUIDE": "Y/N", "AMENITIES": "Lighted basketball, grill, ramada, restrooms, splash pad, lighted sand volleyball.", "TRAILNUMBER": "1", "PARKSDIVISION": "South", "_layer": "WalkPHX Trailheads"}}, {"type": "Feature", "id": 6, "geometry": {"type": "Point", "coordinates": [-112.13604803308696, 33.398995245351905]}, "properties": {"OBJECTID": 6, "NAME": "Playa Margarita Park", "ADDRESS": "3615 W. Roeser Rd.", "INTERSECTION": "36th Ave. and Roeser Rd.", "HOURS": "5:30 a.m. to 10:00 p.m.", "DISTANCE": "Approx .2 miles - 1037 ft.", "WALKPHXGUIDE": "Y/N", "AMENITIES": "Lighted basketball, playground, ramadas and picnic area, lighted softball, lighted volleyball, grill, restrooms, lighted tennis, and the Playa Margarita Recreation Center.", "TRAILNUMBER": "1", "PARKSDIVISION": "South", "_layer": "WalkPHX Trailheads"}}, {"type": "Feature", "id": 7, "geometry": {"type": "Point", "coordinates": [-112.10135193776412, 33.38657105848673]}, "properties": {"OBJECTID": 7, "NAME": "El Prado Park", "ADDRESS": "6428 S. 19th Ave.", "INTERSECTION": "19th Avenue and Southern Avenue", "HOURS": "5:30 a.m. to 11:00 p.m.", "DISTANCE": ".7 miles", "WALKPHXGUIDE": "Y/N", "AMENITIES": "Lighted basketball, picnic area, playground; pool, restrooms, lighted volleyball, lighted softball.", "TRAILNUMBER": "1", "PARKSDIVISION": "South", "_layer": "WalkPHX Trailheads"}}, {"type": "Feature", "id": 321, "geometry": {"type": "Point", "coordinates": [-112.06977763543442, 33.38927681994074]}, "properties": {"OBJECTID": 321, "NAME": "El Reposo Park", "ADDRESS": "502 E. Alta Vista Rd", "INTERSECTION": "7th Street and Alta Vista Rd", "HOURS": "5:30 a.m. - 11 p.m.", "DISTANCE": ".5 mi", "WALKPHXGUIDE": "Y/N", "AMENITIES": "Adult center, lighted basketball, playground, pool, ramada/picnic area, restrooms, lighted tennis, lighted volleyball, grill, recreation building.", "TRAILNUMBER": "1", "PARKSDIVISION": "South", "_layer": "WalkPHX Trailheads"}}, {"type": "Feature", "id": 322, "geometry": {"type": "Point", "coordinates": [-111.98219408954398, 33.29251761046615]}, "properties": {"OBJECTID": 322, "NAME": "Pecos Park", "ADDRESS": "17010 South 48th St.", "INTERSECTION": "48th St. and Pecos Rd.", "HOURS": "5:30 a.m. - 11 p.m.", "DISTANCE": ".5 mi", "WALKPHXGUIDE": "Y/N", "AMENITIES": "A 66-acre regional park with lit soccer, football and multipurpose athletic fields, skate plaza, PETsMART Dog Park at Pecos Park- 1.5 acre off-leash activity area for dogs, playground, splash pad*, basketball and tennis courts, ramadas, sand and concrete ", "TRAILNUMBER": "1", "PARKSDIVISION": "South", "_layer": "WalkPHX Trailheads"}}, {"type": "Feature", "id": 323, "geometry": {"type": "Point", "coordinates": [-112.13561071020662, 33.373373245578776]}, "properties": {"OBJECTID": 323, "NAME": "Aguila Park", "ADDRESS": "7858 S. 35th Ave.", "INTERSECTION": "35th Ave. and Baseline Rd.", "HOURS": "5:30 a.m. - 11 p.m.", "DISTANCE": "1.1 mi", "WALKPHXGUIDE": "Y/N", "AMENITIES": "Lighted basketball, boat ramp, fishing lake, picnic area, playground, racquetball, ramadas, restrooms, lighted softball, tennis, lighted baseball field, lighted multi-purpose field, soccer fields, Chavez Skate Park open dawn to dusk.", "TRAILNUMBER": "1", "PARKSDIVISION": "South", "_layer": "WalkPHX Trailheads"}}, {"type": "Feature", "id": 351, "geometry": {"type": "Point", "coordinates": [-111.95413564867484, 33.4553535603755]}, "properties": {"OBJECTID": 351, "NAME": "Papago Park", "ADDRESS": "625 N. Galvin Pkwy", "INTERSECTION": "N. Galvin Pkwy and E Papago Pk Rd", "HOURS": "5:30 a.m. to 7:00 p.m.", "DISTANCE": "3.1 mi", "WALKPHXGUIDE": "Y/N", "AMENITIES": "Multi-purpose trails, archery, lagoon, lighted softball, volleyball, hiking trails, ramadas.", "TRAILNUMBER": "1", "PARKSDIVISION": "Natural Resources", "_layer": "WalkPHX Trailheads"}}, {"type": "Feature", "id": 352, "geometry": {"type": "Point", "coordinates": [-112.0506303877755, 33.43056673997741]}, "properties": {"OBJECTID": 352, "NAME": "Barrios Unidos Park", "ADDRESS": "1501 E. Mohave St.", "INTERSECTION": null, "HOURS": "5:30 a.m. to 10:00 p.m.", "DISTANCE": null, "WALKPHXGUIDE": null, "AMENITIES": null, "TRAILNUMBER": "1", "PARKSDIVISION": "South", "_layer": "WalkPHX Trailheads"}}, {"type": "Feature", "id": 353, "geometry": {"type": "Point", "coordinates": [-112.11073840891187, 33.59702264209245]}, "properties": {"OBJECTID": 353, "NAME": "Cave Creek Park - Cactus", "ADDRESS": "2400 W. Cactus Rd.", "INTERSECTION": "W. Cactus Rd. and N. 25th Ave.", "HOURS": "5:30 a.m. to 10:00 p.m.", "DISTANCE": null, "WALKPHXGUIDE": null, "AMENITIES": null, "TRAILNUMBER": "1", "PARKSDIVISION": "Northwest", "_layer": "WalkPHX Trailheads"}}, {"type": "Feature", "id": 354, "geometry": {"type": "Point", "coordinates": [-112.07917710431032, 33.40492879150992]}, "properties": {"OBJECTID": 354, "NAME": "Hayden Park", "ADDRESS": "322 W. Tamarisk St.", "INTERSECTION": "W. Tamarisk St. and S 6th Ave.", "HOURS": "5:30 a.m. to 10:00 p.m.", "DISTANCE": null, "WALKPHXGUIDE": null, "AMENITIES": null, "TRAILNUMBER": "1", "PARKSDIVISION": "South", "_layer": "WalkPHX Trailheads"}}, {"type": "Feature", "id": 355, "geometry": {"type": "Point", "coordinates": [-112.12637858684742, 33.39702467809006]}, "properties": {"OBJECTID": 355, "NAME": "Manzanita Park", "ADDRESS": "5500 S. 31st Ave.", "INTERSECTION": "S. 31st Ave and W. Graham Trail", "HOURS": "5:30 a.m. to 11:00 p.m.", "DISTANCE": "Inner loop 0.5 mi, Outer loop 0.7 mi", "WALKPHXGUIDE": "Y/N", "AMENITIES": "Two lighted full size soccer fields, one lighted sand volleyball court, one lighted basketball court, playground areas for 2-5 and 5-12 year olds, benches, picnic area with ramadas and grills, drinking fountains, restrooms, security lighting, and parking.", "TRAILNUMBER": "1", "PARKSDIVISION": "South", "_layer": "WalkPHX Trailheads"}}, {"type": "Feature", "id": 644, "geometry": {"type": "Point", "coordinates": [-111.97976569948365, 33.46593001384886]}, "properties": {"OBJECTID": 644, "NAME": "Old Cross Cut Canal - McDowell to Thomas", "ADDRESS": null, "INTERSECTION": "Parallel to 48th St. between McDowell Rd and Thomas Rd", "HOURS": null, "DISTANCE": null, "WALKPHXGUIDE": null, "AMENITIES": null, "TRAILNUMBER": "1", "PARKSDIVISION": "Northeast", "_layer": "WalkPHX Trailheads"}}, {"type": "Feature", "id": 645, "geometry": {"type": "Point", "coordinates": [-111.97825568843898, 33.480270180831624]}, "properties": {"OBJECTID": 645, "NAME": "Old Cross Cut Canal - Thomas to Indian School", "ADDRESS": null, "INTERSECTION": "Parallel to 48th St. between Thomas Rd and E Indian School Rd", "HOURS": null, "DISTANCE": null, "WALKPHXGUIDE": null, "AMENITIES": null, "TRAILNUMBER": "1", "PARKSDIVISION": "Northeast", "_layer": "WalkPHX Trailheads"}}, {"type": "Feature", "id": 646, "geometry": {"type": "Point", "coordinates": [-112.01715758410094, 33.630620230277216]}, "properties": {"OBJECTID": 646, "NAME": "Palomino Park", "ADDRESS": "15815 N. 30th St.", "INTERSECTION": null, "HOURS": "5:30 a.m. to 10:00 p.m.", "DISTANCE": null, "WALKPHXGUIDE": null, "AMENITIES": null, "TRAILNUMBER": "1", "PARKSDIVISION": "Northeast", "_layer": "WalkPHX Trailheads"}}, {"type": "Feature", "id": 647, "geometry": {"type": "Point", "coordinates": [-112.01438785496887, 33.47845458689145]}, "properties": {"OBJECTID": 647, "NAME": "Perry Park", "ADDRESS": "2700 N. 32nd St", "INTERSECTION": null, "HOURS": "5:30 a.m. to 11:00 p.m.", "DISTANCE": null, "WALKPHXGUIDE": null, "AMENITIES": null, "TRAILNUMBER": "1", "PARKSDIVISION": "Northeast", "_layer": "WalkPHX Trailheads"}}, {"type": "Feature", "id": 650, "geometry": {"type": "Point", "coordinates": [-112.07108711079877, 33.42348324118626]}, "properties": {"OBJECTID": 650, "NAME": "Rio Salado North Bank - East", "ADDRESS": "641 W. Lower Buckeye Rd.", "INTERSECTION": null, "HOURS": null, "DISTANCE": null, "WALKPHXGUIDE": null, "AMENITIES": null, "TRAILNUMBER": "1", "PARKSDIVISION": "Natural Resources", "_layer": "WalkPHX Trailheads"}}, {"type": "Feature", "id": 651, "geometry": {"type": "Point", "coordinates": [-112.07109796862225, 33.423474870655944]}, "properties": {"OBJECTID": 651, "NAME": "Rio Salado North Bank - West", "ADDRESS": "641 W. Lower Buckeye Rd.", "INTERSECTION": null, "HOURS": null, "DISTANCE": null, "WALKPHXGUIDE": null, "AMENITIES": null, "TRAILNUMBER": "2", "PARKSDIVISION": "Natural Resources", "_layer": "WalkPHX Trailheads"}}, {"type": "Feature", "id": 344, "geometry": {"type": "Point", "coordinates": [-112.12981315776554, 33.50364530088258]}, "properties": {"OBJECTID": 344, "NAME": "Cielito Park", "ADDRESS": "3402 W. Campbell Ave", "INTERSECTION": "33rd Ave. and Campbell Ave.", "HOURS": "5:30 a.m. to 11:00 p.m.", "DISTANCE": "1.1 mi", "WALKPHXGUIDE": "Y/N", "AMENITIES": "Lighted basketball; exercise course, handicapped access, picnic area, playground, pool, restrooms, ramada, rugby, lighted soccer, softball and tennis courts. ", "TRAILNUMBER": "1", "PARKSDIVISION": "Northwest", "_layer": "WalkPHX Trailheads"}}, {"type": "Feature", "id": 1604, "geometry": {"type": "Point", "coordinates": [-112.19421268401905, 33.458708906771925]}, "properties": {"OBJECTID": 1604, "NAME": "Sunridge Park", "ADDRESS": "6201 W. Roosevelt St.", "INTERSECTION": "W. Roosevelt and N. 62nd", "HOURS": "5:30 a.m. to 10:00 p.m.", "DISTANCE": "0.5 miles", "WALKPHXGUIDE": null, "AMENITIES": null, "TRAILNUMBER": "1", "PARKSDIVISION": "South", "_layer": "WalkPHX Trailheads"}}, {"type": "Feature", "id": 1605, "geometry": {"type": "Point", "coordinates": [-112.08154036200844, 33.57696389759099]}, "properties": {"OBJECTID": 1605, "NAME": "Mountain View Park", "ADDRESS": "9901 N. 7th Ave.", "INTERSECTION": "N. 7th Ave. and W. Cinnabar Ave.", "HOURS": "5:30 a.m. to 10:00 p.m.", "DISTANCE": "0.53 miles", "WALKPHXGUIDE": null, "AMENITIES": null, "TRAILNUMBER": "1", "PARKSDIVISION": "Northeast", "_layer": "WalkPHX Trailheads"}}, {"type": "Feature", "id": 1286, "geometry": {"type": "Point", "coordinates": [-112.05539976362567, 33.57171479172235]}, "properties": {"OBJECTID": 1286, "NAME": "Norton Park", "ADDRESS": "1224 E. Hatcher Rd.", "INTERSECTION": "E. Hatcher Rd. and N. 12th", "HOURS": "5:30 a.m. to 10:00 p.m.", "DISTANCE": "0.33 miles", "WALKPHXGUIDE": null, "AMENITIES": null, "TRAILNUMBER": "1", "PARKSDIVISION": "Northeast", "_layer": "WalkPHX Trailheads"}}, {"type": "Feature", "id": 1607, "geometry": {"type": "Point", "coordinates": [-112.0800852961855, 33.43531091176798]}, "properties": {"OBJECTID": 1607, "NAME": "Harmon Park", "ADDRESS": "1425 S 5th Ave", "INTERSECTION": "S 5th Ave and W Yavapai St", "HOURS": "5:30 a.m. to 11:00 p.m.", "DISTANCE": "0.2 miles", "WALKPHXGUIDE": null, "AMENITIES": null, "TRAILNUMBER": "1", "PARKSDIVISION": "South", "_layer": "WalkPHX Trailheads"}}, {"type": "Feature", "id": 1608, "geometry": {"type": "Point", "coordinates": [-112.17520336126381, 33.3656072628619]}, "properties": {"OBJECTID": 1608, "NAME": "Harvest Park", "ADDRESS": "5400 W Gwen St", "INTERSECTION": "W Gwen St and S 55th Ave", "HOURS": "5:30 a.m. to 10:30 p.m.", "DISTANCE": "0.32 miles", "WALKPHXGUIDE": null, "AMENITIES": null, "TRAILNUMBER": "1", "PARKSDIVISION": "South", "_layer": "WalkPHX Trailheads"}}, {"type": "Feature", "id": 1609, "geometry": {"type": "Point", "coordinates": [-112.1146018364194, 33.54027480778746]}, "properties": {"OBJECTID": 1609, "NAME": "Homestead Park", "ADDRESS": "2602 W Glendale Ave", "INTERSECTION": "W Glendale Ave and N 26th Dr", "HOURS": "6:00 a.m. to 11:00 p.m.", "DISTANCE": "0.25 miles", "WALKPHXGUIDE": null, "AMENITIES": null, "TRAILNUMBER": "1", "PARKSDIVISION": "Northwest", "_layer": "WalkPHX Trailheads"}}, {"type": "Feature", "id": 1606, "geometry": {"type": "Point", "coordinates": [-112.04932481118558, 33.764087207623646]}, "properties": {"OBJECTID": 1606, "NAME": "Skip Rimsza Paseos Trail", "ADDRESS": "1600 E Sonoran Desert Dr.", "INTERSECTION": "E Sonoran Desert Dr. and Apache Wash Trailhead", "HOURS": "5:00 a.m. to 7:00 p.m.", "DISTANCE": null, "WALKPHXGUIDE": null, "AMENITIES": null, "TRAILNUMBER": "1", "PARKSDIVISION": "Natural Resources", "_layer": "WalkPHX Trailheads"}}, {"type": "Feature", "id": 1610, "geometry": {"type": "Point", "coordinates": [-112.17760837872383, 33.50210862251448]}, "properties": {"OBJECTID": 1610, "NAME": "55th Ave \"Cool Corridor\"", "ADDRESS": "N 55th Ave between Camelback Rd and W Indian School Rd", "INTERSECTION": "N 55th Ave and W Campbell Ave", "HOURS": null, "DISTANCE": "2 miles", "WALKPHXGUIDE": null, "AMENITIES": null, "TRAILNUMBER": "1", "PARKSDIVISION": "Northwest", "_layer": "WalkPHX Trailheads"}}, {"type": "Feature", "id": 332, "geometry": {"type": "Point", "coordinates": [-111.99460421873597, 33.75203038095329]}, "properties": {"OBJECTID": 332, "NAME": "Desert Broom Park", "ADDRESS": "29440 N. Cave Creek Rd.", "INTERSECTION": "N. Cave Creek Rd.", "HOURS": "5:30 a.m. to 11:00 p.m.", "DISTANCE": "0.38", "WALKPHXGUIDE": "Y/N", "AMENITIES": "Two lighted soccer fields, one rest room, one play equipment area, one ramada, 87 parking spaces, walking path, ADA accessible and 12 acres of developed space.", "TRAILNUMBER": "1", "PARKSDIVISION": "Northeast", "_layer": "WalkPHX Trailheads"}}, {"type": "Feature", "id": 341, "geometry": {"type": "Point", "coordinates": [-112.16725706989921, 33.72756069832688]}, "properties": {"OBJECTID": 341, "NAME": "Deem Hills Park", "ADDRESS": "5050 W. Andrea Ln.", "INTERSECTION": "51st Ave. and Deem Hills Pkwy", "HOURS": "5:30 a.m. to 11:00 p.m.", "DISTANCE": "0.55 mi", "WALKPHXGUIDE": "Y/N", "AMENITIES": "40-acre community park include a small-child playground (age 2-5), ramadas, restrooms, walking path, 2 lighted soccer fields, and a lighted basketball court.", "TRAILNUMBER": "1", "PARKSDIVISION": "Northwest", "_layer": "WalkPHX Trailheads"}}, {"type": "Feature", "id": 349, "geometry": {"type": "Point", "coordinates": [-112.06554486314694, 33.58315767628372]}, "properties": {"OBJECTID": 349, "NAME": "North Mountain Park", "ADDRESS": "10600 N. 7th St.", "INTERSECTION": "Phoenix Mountains Preserve at 7th St. and Peoria", "HOURS": "5:00 a.m. to 11:00 p.m.", "DISTANCE": "0.8 mies", "WALKPHXGUIDE": "Y/N", "AMENITIES": "Amenities include hiking and riding trails, the Penny Howe barrier free nature trail, orienteering course, playground, picnic areas with ramadas, dance slabs, park ranger station, restrooms, and trailhead parking lot.", "TRAILNUMBER": "1", "PARKSDIVISION": "Natural Resources", "_layer": "WalkPHX Trailheads"}}, {"type": "Feature", "id": 1284, "geometry": {"type": "Point", "coordinates": [-112.10621035165914, 33.39845722052218]}, "properties": {"OBJECTID": 1284, "NAME": "Lindo Park", "ADDRESS": "2230 W. Roeser Rd.", "INTERSECTION": "W. Roeser and S. Vista Grande", "HOURS": null, "DISTANCE": "0.4 miles", "WALKPHXGUIDE": null, "AMENITIES": null, "TRAILNUMBER": "1", "PARKSDIVISION": "South", "_layer": "WalkPHX Trailheads"}}, {"type": "Feature", "id": 1285, "geometry": {"type": "Point", "coordinates": [-112.08409427757198, 33.3573209118939]}, "properties": {"OBJECTID": 1285, "NAME": "Ma-Ha-Tauk Park", "ADDRESS": "9832 S 7th Ave", "INTERSECTION": "7th Ave and W. McNeil St.", "HOURS": "5:30 a.m. to 10:00 p.m.", "DISTANCE": "0.4 Miles", "WALKPHXGUIDE": null, "AMENITIES": null, "TRAILNUMBER": "1", "PARKSDIVISION": "South", "_layer": "WalkPHX Trailheads"}}, {"type": "Feature", "id": 648, "geometry": {"type": "Point", "coordinates": [-112.13272363802662, 33.69625327319209]}, "properties": {"OBJECTID": 648, "NAME": "Paseo Highlands Park", "ADDRESS": "3435 W. Pinnacle Peak Rd", "INTERSECTION": "35th Ave and Pinnacle Peak Rd", "HOURS": "5:30 a.m. to 10:00 p.m.", "DISTANCE": "0.4 mi", "WALKPHXGUIDE": "Y/N", "AMENITIES": "A 40-acre regional Park with two lighted softball fields, lighted soccer field, lighted basketball court, lighted volleyball court, playgrounds, restrooms and picnic areas, grills, ramadas, and the Geolet A.C. Beuf Community Center.", "TRAILNUMBER": "1", "PARKSDIVISION": "Northwest", "_layer": "WalkPHX Trailheads"}}, {"type": "Feature", "id": 649, "geometry": {"type": "Point", "coordinates": [-112.1320393270217, 33.69821372496103]}, "properties": {"OBJECTID": 649, "NAME": "Paseo Highlands Park", "ADDRESS": "3435 W. Pinnacle Peak Rd.", "INTERSECTION": "35th Ave. and Pinnacle Peak Rd.", "HOURS": "5:30 a.m. to 10:00 p.m.", "DISTANCE": "1 mi", "WALKPHXGUIDE": "Y/N", "AMENITIES": "A 40-acre regional Park with two lighted softball fields, lighted soccer field, lighted basketball court, lighted volleyball court, playgrounds, restrooms and picnic areas, grills, ramadas, and the Geolet A.C. Beuf Community Center.", "TRAILNUMBER": "2", "PARKSDIVISION": "Northwest", "_layer": "WalkPHX Trailheads"}}, {"type": "Feature", "id": 964, "geometry": {"type": "Point", "coordinates": [-112.0726268751601, 33.419890184060954]}, "properties": {"OBJECTID": 964, "NAME": "Rio Salado South Bank - East", "ADDRESS": null, "INTERSECTION": null, "HOURS": null, "DISTANCE": null, "WALKPHXGUIDE": null, "AMENITIES": null, "TRAILNUMBER": "1", "PARKSDIVISION": "Natural Resources", "_layer": "WalkPHX Trailheads"}}, {"type": "Feature", "id": 965, "geometry": {"type": "Point", "coordinates": [-112.07264054191563, 33.41989373493184]}, "properties": {"OBJECTID": 965, "NAME": "Rio Salado South Bank - West", "ADDRESS": null, "INTERSECTION": null, "HOURS": null, "DISTANCE": null, "WALKPHXGUIDE": null, "AMENITIES": null, "TRAILNUMBER": "2", "PARKSDIVISION": "Natural Resources", "_layer": "WalkPHX Trailheads"}}, {"type": "Feature", "id": 966, "geometry": {"type": "Point", "coordinates": [-112.0764969679106, 33.46208087748405]}, "properties": {"OBJECTID": 966, "NAME": "WalkPHX Wednesday", "ADDRESS": "67 W. Culver St.", "INTERSECTION": null, "HOURS": null, "DISTANCE": null, "WALKPHXGUIDE": null, "AMENITIES": null, "TRAILNUMBER": null, "PARKSDIVISION": null, "_layer": "WalkPHX Trailheads"}}, {"type": "Feature", "id": 330, "geometry": {"type": "Point", "coordinates": [-112.08873394825385, 33.47446995809569]}, "properties": {"OBJECTID": 330, "NAME": "Encanto Park", "ADDRESS": "2605 N. 15th Ave.", "INTERSECTION": "15th Ave. and Encanto Blvd.", "HOURS": "5:30 a.m. to 11 p.m.", "DISTANCE": "0.498 mi", "WALKPHXGUIDE": "Y/N", "AMENITIES": "Basketball, boating, exercise course, golf course, handball/racquetball, picnic area, playground, pool, softball, recreation building, restrooms, volleyball, ltennis courts, grills, fishing, lagoon, Enchanted Island Amusement Park.", "TRAILNUMBER": "1", "PARKSDIVISION": "Downtown", "_layer": "WalkPHX Trailheads"}}, {"type": "Feature", "id": 324, "geometry": {"type": "Point", "coordinates": [-112.04882821441632, 33.44666254560671]}, "properties": {"OBJECTID": 324, "NAME": "Eastlake Park", "ADDRESS": "1540 E. Jefferson St.", "INTERSECTION": "16th St. and Jefferson St.", "HOURS": "5:30 a.m. to 10:30 p.m.", "DISTANCE": ".3 mi", "WALKPHXGUIDE": "Y/N", "AMENITIES": "Amphitheater, lighted basketball courts, picnic area, 5 grills, restrooms, soccer, two lighted tennis courts, lighted volleyball, playground, lighted baseball field, Eastlake Park Recreation Center", "TRAILNUMBER": "1", "PARKSDIVISION": "South", "_layer": "WalkPHX Trailheads"}}, {"type": "Feature", "id": 325, "geometry": {"type": "Point", "coordinates": [-112.07629552429201, 33.44017028846342]}, "properties": {"OBJECTID": 325, "NAME": "Grant Park", "ADDRESS": "701 S. Third Ave", "INTERSECTION": "3rd Ave and Grant St.", "HOURS": "5:30 a.m. to 10:00 p.m.", "DISTANCE": "1,230 ft", "WALKPHXGUIDE": "Y/N", "AMENITIES": "Basketball, gymnasium, picnic area, lighted play field, playground, pool,  grill, multi-purpose field, Grant Recreation Building", "TRAILNUMBER": "1", "PARKSDIVISION": "South", "_layer": "WalkPHX Trailheads"}}, {"type": "Feature", "id": 326, "geometry": {"type": "Point", "coordinates": [-112.03862781791906, 33.3948382662167]}, "properties": {"OBJECTID": 326, "NAME": "Hermoso Park", "ADDRESS": "2030 E. Southern Ave", "INTERSECTION": "20th St. and Southern Ave.", "HOURS": "5:30 a.m. to 11:00 p.m.", "DISTANCE": ".477 mi", "WALKPHXGUIDE": "Y/N", "AMENITIES": "Lighted basketball, playground, pool, ramadas and picnic area, recreation building, restrooms, lighted soccer, lighted softball, lighted tennis, lighted volleyball, lighted skate plaza, grill.", "TRAILNUMBER": "1", "PARKSDIVISION": "South", "_layer": "WalkPHX Trailheads"}}, {"type": "Feature", "id": 327, "geometry": {"type": "Point", "coordinates": [-111.97607622082056, 33.32287744189148]}, "properties": {"OBJECTID": 327, "NAME": "Mountain Vista Park", "ADDRESS": "13647 S. 50th St.", "INTERSECTION": "48th St. and Knox Rd.", "HOURS": "5:30 a.m. to 11:00 p.m.", "DISTANCE": "1.2 mi", "WALKPHXGUIDE": "Y/N", "AMENITIES": "Lighted basketball, picnic area, playground, restrooms, lighted softball, lighted volleyball, grill, ramada, lighted soccer, splash pad, lighted sand volleyball.", "TRAILNUMBER": "1", "PARKSDIVISION": "South", "_layer": "WalkPHX Trailheads"}}, {"type": "Feature", "id": 328, "geometry": {"type": "Point", "coordinates": [-112.06903065827875, 33.498900529897575]}, "properties": {"OBJECTID": 328, "NAME": "Steele Indian School Park", "ADDRESS": "300 East Indian School Rd.", "INTERSECTION": "3rd St. and Indian School Rd.", "HOURS": "6 a.m. to 10 p.m.", "DISTANCE": "0.83 mi", "WALKPHXGUIDE": "Y/N", "AMENITIES": "Amphitheater, playground, lighted basketball, fishing, grill, picnic area,", "TRAILNUMBER": "1", "PARKSDIVISION": "Downtown", "_layer": "WalkPHX Trailheads"}}, {"type": "Feature", "id": 329, "geometry": {"type": "Point", "coordinates": [-112.06135108810881, 33.452768229062286]}, "properties": {"OBJECTID": 329, "NAME": "Verde Park", "ADDRESS": "916 E. Van Buren St.", "INTERSECTION": "9th St. and Van Buren", "HOURS": "7 a.m. to 10 p.m.", "DISTANCE": "0.25 mi", "WALKPHXGUIDE": "Y/N", "AMENITIES": "Under renovation", "TRAILNUMBER": "1", "PARKSDIVISION": "Downtown", "_layer": "WalkPHX Trailheads"}}, {"type": "Feature", "id": 331, "geometry": {"type": "Point", "coordinates": [-112.0674915942469, 33.47309366060041]}, "properties": {"OBJECTID": 331, "NAME": "Monterey Park", "ADDRESS": "350 E. Oak St.", "INTERSECTION": "3rd St. and Oak St.", "HOURS": "5:30 a.m. to 11:00 p.m.", "DISTANCE": "0.334 mi", "WALKPHXGUIDE": "Y/N", "AMENITIES": "Lighted basketball, picnic areas, restrooms lighted soccer, lighted softball, lighted volleyball, grill, playground.", "TRAILNUMBER": "1", "PARKSDIVISION": "Downtown", "_layer": "WalkPHX Trailheads"}}, {"type": "Feature", "id": 333, "geometry": {"type": "Point", "coordinates": [-111.99346275062621, 33.76532033138117]}, "properties": {"OBJECTID": 333, "NAME": "Desert Willow Park", "ADDRESS": "4040 E. Desert Willow Pkwy.", "INTERSECTION": "Desert Willow Pkwy. and E. Rancho Caliente Dr.", "HOURS": "5:30 a.m. to 10:00 p.m.", "DISTANCE": "0.57 mi", "WALKPHXGUIDE": "Y/N", "AMENITIES": "Lighted basketball courts, picnic area, ramadas, drinking fountain, playground, lighted sand volleyball courts, multipurpose field, restrooms.", "TRAILNUMBER": "1", "PARKSDIVISION": "Northeast", "_layer": "WalkPHX Trailheads"}}, {"type": "Feature", "id": 334, "geometry": {"type": "Point", "coordinates": [-111.99108568112837, 33.5903879692644]}, "properties": {"OBJECTID": 334, "NAME": "Cholla Cove Park", "ADDRESS": "4121 E. Lupine Ave.", "INTERSECTION": "40th St. and Cactus Rd.", "HOURS": "5:30 a.m. to 10:00 p.m.", "DISTANCE": "0.4 mi", "WALKPHXGUIDE": "Y/N", "AMENITIES": "Lighted basketball court, picnic area, grills, drinking fountain, playground, small ramada, two unlit sand volleyball courts, and fitness course.", "TRAILNUMBER": "1", "PARKSDIVISION": "Northeast", "_layer": "WalkPHX Trailheads"}}, {"type": "Feature", "id": 335, "geometry": {"type": "Point", "coordinates": [-111.9817614647296, 33.742570001545694]}, "properties": {"OBJECTID": 335, "NAME": "Dynamite Park", "ADDRESS": "4550 E. Dynamite Blvd.", "INTERSECTION": "Dynamite Blvd. and N. 45th St.", "HOURS": "5:30 a.m. to 11:00 p.m.", "DISTANCE": "0.6 mi", "WALKPHXGUIDE": "Y/N", "AMENITIES": "22 Acre Park, lighted basketball court, playground, drinking fountain, lagoon, multi-purpose field, two lighted tennis courts.", "TRAILNUMBER": "1", "PARKSDIVISION": "Northeast", "_layer": "WalkPHX Trailheads"}}, {"type": "Feature", "id": 336, "geometry": {"type": "Point", "coordinates": [-112.01867129971195, 33.49728777877236]}, "properties": {"OBJECTID": 336, "NAME": "Los Olivos Park", "ADDRESS": "2802 E. Devonshire Ave.", "INTERSECTION": "28th St. and Devonshire Ave.", "HOURS": "6:00 a.m. to 10:00 p.m.", "DISTANCE": null, "WALKPHXGUIDE": "Y/N", "AMENITIES": "Adult Center; picnic area, play field, restrooms, lighted sand volleyball, grill, horseshoes, multi-purpose field, playground, Ramada, playground shade structure, Disc Golf - 9 holes. Fitness Course.", "TRAILNUMBER": "1", "PARKSDIVISION": "Northeast", "_layer": "WalkPHX Trailheads"}}, {"type": "Feature", "id": 337, "geometry": {"type": "Point", "coordinates": [-111.97893927430252, 33.78586195157398]}, "properties": {"OBJECTID": 337, "NAME": "Dove Valley Park", "ADDRESS": "4740 Rancho Paloma Dr.", "INTERSECTION": "Cave Creek Rd. and Rancho Paloma Dr.", "HOURS": "5:00 a.m. to 10:00 p.m.", "DISTANCE": "0.27 mi", "WALKPHXGUIDE": "Y/N", "AMENITIES": "Playground, ramada, picnic area, basketball court, lighted walks, open turf areas.", "TRAILNUMBER": "1", "PARKSDIVISION": "Northeast", "_layer": "WalkPHX Trailheads"}}, {"type": "Feature", "id": 338, "geometry": {"type": "Point", "coordinates": [-111.98034487629577, 33.689201237383564]}, "properties": {"OBJECTID": 338, "NAME": "Cashman Park", "ADDRESS": "22222 N. 44th St.", "INTERSECTION": "44th St. and Pathfinder Dr.", "HOURS": "5:30 a.m. to 10:00 p.m.", "DISTANCE": "0.33 mi", "WALKPHXGUIDE": "Y/N", "AMENITIES": "Shaded playground, fitness course, one large ramada with four tables, two small ramadas with 2 tables and one grill each, two lighted basketball courts, two lighted sand volleyball courts, multi-purpose field, restrooms and drinking fountain.", "TRAILNUMBER": "1", "PARKSDIVISION": "Northeast", "_layer": "WalkPHX Trailheads"}}, {"type": "Feature", "id": 339, "geometry": {"type": "Point", "coordinates": [-112.00627588700631, 33.597679425866666]}, "properties": {"OBJECTID": 339, "NAME": "Roadrunner Park", "ADDRESS": "3502 E. Cactus Rd.", "INTERSECTION": "36th St and Cactus Rd.", "HOURS": "5:30 a.m. to 11:00 p.m.", "DISTANCE": "0.762 mi", "WALKPHXGUIDE": "Y/N", "AMENITIES": "Lighted baseball, lighted basketball, lagoon, playground with shade structure, pool, ramadas and picnic area, restrooms, lighted soccer, lighted softball, lighted tennis, lighted sand volleyball, grill, lagoon/lake.", "TRAILNUMBER": "1", "PARKSDIVISION": "Northeast", "_layer": "WalkPHX Trailheads"}}, {"type": "Feature", "id": 340, "geometry": {"type": "Point", "coordinates": [-111.98841485772424, 33.721148982127076]}, "properties": {"OBJECTID": 340, "NAME": "John W. Teets Park", "ADDRESS": "4380 E. Ramuda Dr.", "INTERSECTION": "E. Ramuda Dr.", "HOURS": "5:30 a.m. to 10:00 p.m.", "DISTANCE": "0.377 mi", "WALKPHXGUIDE": "Y/N", "AMENITIES": "playground, ramada, picnic tables, a basketball court, a volleyball court and plenty of grass to romp and play in.", "TRAILNUMBER": "1", "PARKSDIVISION": "Northeast", "_layer": "WalkPHX Trailheads"}}, {"type": "Feature", "id": 342, "geometry": {"type": "Point", "coordinates": [-112.12887329361872, 33.80630895957769]}, "properties": {"OBJECTID": 342, "NAME": "Tramonto Park", "ADDRESS": "35425 N. 32nd Dr.", "INTERSECTION": "N 32nd and W Leisure Ln", "HOURS": "5:30 a.m. to 10:00 p.m.", "DISTANCE": "0.66", "WALKPHXGUIDE": "Y/N", "AMENITIES": "Lighted basketball , lighted volleyball, nine-station exercise course,\r\nplayground, small amphitheater.", "TRAILNUMBER": "1", "PARKSDIVISION": "Northwest", "_layer": "WalkPHX Trailheads"}}, {"type": "Feature", "id": 343, "geometry": {"type": "Point", "coordinates": [-112.10625921265304, 33.53179736050794]}, "properties": {"OBJECTID": 343, "NAME": "Washington Park", "ADDRESS": "6655 N. 23rd Ave", "INTERSECTION": "23rd Ave and Maryland", "HOURS": "5:30 a.m. to 11:00 p.m.", "DISTANCE": null, "WALKPHXGUIDE": "Y/N", "AMENITIES": "Lighted basketball, exercise course, playground, pool, ramada and picnic area, restrooms, soccer, lighted softball, lighted sand volleyball, lighted PETsMART Dog Park.", "TRAILNUMBER": "1", "PARKSDIVISION": "Northwest", "_layer": "WalkPHX Trailheads"}}, {"type": "Feature", "id": 345, "geometry": {"type": "Point", "coordinates": [-112.16996003417918, 33.501363186843875]}, "properties": {"OBJECTID": 345, "NAME": "Maryvale Park", "ADDRESS": "4420 N. 51st Ave", "INTERSECTION": "51st and Campbell Ave", "HOURS": "5:30 a.m. to 11:00 p.m.", "DISTANCE": "0.4 miles", "WALKPHXGUIDE": "Y/N", "AMENITIES": "Art sculpture, lighted basketball, exercise course, grills, playground with shade structure, pool, ramada and picnic area, recreation building restrooms, lighted softball, community center, lighted volleyball.", "TRAILNUMBER": "1", "PARKSDIVISION": "Northwest", "_layer": "WalkPHX Trailheads"}}, {"type": "Feature", "id": 346, "geometry": {"type": "Point", "coordinates": [-112.20032978877747, 33.47511313476842]}, "properties": {"OBJECTID": 346, "NAME": "Desert West Park", "ADDRESS": "6602 W. Encanto Blvd.", "INTERSECTION": "N. 66th Ave and W. Encanto Blvd.", "HOURS": "5:30 a.m. to 11:00 p.m.", "DISTANCE": "0.48 mi", "WALKPHXGUIDE": "Y/N", "AMENITIES": "Community center, basketball, handball/racquetball, picnic area with ramadas, shaded playgrounds, restrooms; softball fields, tennis, sand volleyball, skateboard plaza, lagoon/fishing, soccer fields with artificial turf, restrooms, grills", "TRAILNUMBER": "1", "PARKSDIVISION": "Northwest", "_layer": "WalkPHX Trailheads"}}, {"type": "Feature", "id": 347, "geometry": {"type": "Point", "coordinates": [-112.10184714231184, 33.667016256100375]}, "properties": {"OBJECTID": 347, "NAME": "Deer Valley Park", "ADDRESS": "19602 N. 19th Ave.", "INTERSECTION": "N. 19th Ave. and W. Wahalla Ln.", "HOURS": "5:30 a.m. to 11:00 p.m.", "DISTANCE": "0.85 mi", "WALKPHXGUIDE": "Y/N", "AMENITIES": "Community center, lighted basketball, exercise course, picnic area, grills, three ramadas, playground with shade structure, pool; restrooms, drinking fountains, soccer, lighted softball, lighted tennis, lighted volleyball\r\n(sand and asphalt),", "TRAILNUMBER": "1", "PARKSDIVISION": "Northwest", "_layer": "WalkPHX Trailheads"}}, {"type": "Feature", "id": 348, "geometry": {"type": "Point", "coordinates": [-112.14455981783988, 33.53586209743855]}, "properties": {"OBJECTID": 348, "NAME": "La Pradera Park", "ADDRESS": "6830 N. 39th Ave.", "INTERSECTION": "39th and Glendale Ave.", "HOURS": "5:30 a.m. to 11:00 p.m.", "DISTANCE": "0.492 mi", "WALKPHXGUIDE": "Y/N", "AMENITIES": "Lighted basketball, community center, picnic area, playground, restrooms, lighted soccer, lighted softball, lighted tennis, lighted volleyball.", "TRAILNUMBER": "1", "PARKSDIVISION": "Northwest", "_layer": "WalkPHX Trailheads"}}, {"type": "Feature", "id": 350, "geometry": {"type": "Point", "coordinates": [-112.1118371610292, 33.576755630062266]}, "properties": {"OBJECTID": 350, "NAME": "Rose Mofford Sports Complex", "ADDRESS": "9833 N. 25th Ave.", "INTERSECTION": "N. 25th Ave and W Ironwood Dr", "HOURS": null, "DISTANCE": null, "WALKPHXGUIDE": null, "AMENITIES": null, "TRAILNUMBER": "1", "PARKSDIVISION": "Special Operations", "_layer": "WalkPHX Trailheads"}}]}